SL-14 R/B               
1 16792U 86046B   26092.31407716  .00000753  00000+0  83814-4 0  9999
2 16792  82.4812  57.8549 0023918 146.6596 213.6132 14.85615070129917
SL-14 R/B               
1 16882U 86055B   26092.29924352  .00000668  00000+0  74192-4 0  9990
2 16882  82.5169 104.4764 0017375 252.6914 117.6009 14.85664867122875
AJISAI (EGS)            
1 16908U 86061A   26092.26692885 -.00000093  00000+0  34509-4 0  9997
2 16908  50.0119  20.8473 0011356 347.6934 178.0358 12.44515666470933
SL-14 R/B               
1 17567U 87024B   26092.20420904  .00000728  00000+0  80037-4 0  9995
2 17567  82.5260  70.6562 0018207 177.9318 182.1978 14.86156147 91628
COSMOS 1833             
1 17589U 87027A   26092.22092880 -.00000304  00000+0 -13654-3 0  9994
2 17589  70.9166 276.5579 0023054 179.5638 180.5508 14.13045339 13649
SL-16 R/B               
1 17590U 87027B   26092.33807638  .00000270  00000+0  15756-3 0  9998
2 17590  71.0021 226.6580 0002884  83.4109 276.7343 14.17167421 18691
SL-14 R/B               
1 17912U 87038B   26092.21124434  .00000713  00000+0  79685-4 0  9995
2 17912  82.4977 274.6424 0020763  87.1999 273.1593 14.85392292 82723
COSMOS 1844             
1 17973U 87041A   26092.16031351  .00000405  00000+0  23500-3 0  9997
2 17973  70.9017 344.6722 0031350 343.4615  16.5480 14.14560339  6904
SL-14 R/B               
1 18153U 87055B   26092.11659754  .00000485  00000+0  53118-4 0  9998
2 18153  82.4999 326.9544 0019296 298.3745  61.5525 14.85652446 73413
COSMOS 1867             
1 18187U 87060A   26092.12430647 -.00000015  00000+0  31890-4 0  9993
2 18187  65.0099 241.0732 0014900 280.0256  79.9147 14.31506751 23298
SL-14 R/B               
1 18749U 88001B   26092.31565835  .00000680  00000+0  75685-4 0  9999
2 18749  82.5158 173.1464 0018707 156.0140 204.1952 14.85554523 45538
COSMOS 1933             
1 18958U 88020A   26092.32141886  .00007074  00000+0  34424-3 0  9998
2 18958  82.5131 227.5247 0005522 112.9435 247.2383 15.18216761 53815
