CCSDS_OMM_VERS = 2.0
CREATION_DATE  = 
ORIGINATOR     = 

OBJECT_NAME    = SL-14 R/B
OBJECT_ID      = 1986-046B
CENTER_NAME    = EARTH
REF_FRAME      = TEME
TIME_SYSTEM    = UTC
MEAN_ELEMENT_THEORY = SGP/SGP4

EPOCH          = 2026-04-02T07:32:16.266624
MEAN_MOTION    = 14.85615070
ECCENTRICITY   = .00239181
INCLINATION    = 82.4812
RA_OF_ASC_NODE = 57.8549
ARG_OF_PERICENTER = 146.6596
MEAN_ANOMALY   = 213.6132

EPHEMERIS_TYPE = 0
CLASSIFICATION_TYPE = U
NORAD_CAT_ID   = 16792
ELEMENT_SET_NO = 999
REV_AT_EPOCH   = 12991
BSTAR          = .83814196E-4
MEAN_MOTION_DOT = .753E-5
MEAN_MOTION_DDOT = 0

CCSDS_OMM_VERS = 2.0
CREATION_DATE  = 
ORIGINATOR     = 

OBJECT_NAME    = SL-14 R/B
OBJECT_ID      = 1986-055B
CENTER_NAME    = EARTH
REF_FRAME      = TEME
TIME_SYSTEM    = UTC
MEAN_ELEMENT_THEORY = SGP/SGP4

EPOCH          = 2026-04-02T07:10:54.640128
MEAN_MOTION    = 14.85664867
ECCENTRICITY   = .00173757
INCLINATION    = 82.5169
RA_OF_ASC_NODE = 104.4764
ARG_OF_PERICENTER = 252.6914
MEAN_ANOMALY   = 117.6009

EPHEMERIS_TYPE = 0
CLASSIFICATION_TYPE = U
NORAD_CAT_ID   = 16882
ELEMENT_SET_NO = 999
REV_AT_EPOCH   = 12287
BSTAR          = .74191945E-4
MEAN_MOTION_DOT = .668E-5
MEAN_MOTION_DDOT = 0

CCSDS_OMM_VERS = 2.0
CREATION_DATE  = 
ORIGINATOR     = 

OBJECT_NAME    = AJISAI (EGS)
OBJECT_ID      = 1986-061A
CENTER_NAME    = EARTH
REF_FRAME      = TEME
TIME_SYSTEM    = UTC
MEAN_ELEMENT_THEORY = SGP/SGP4

EPOCH          = 2026-04-02T06:24:22.652640
MEAN_MOTION    = 12.44515666
ECCENTRICITY   = .00113563
INCLINATION    = 50.0119
RA_OF_ASC_NODE = 20.8473
ARG_OF_PERICENTER = 347.6934
MEAN_ANOMALY   = 178.0358

EPHEMERIS_TYPE = 0
CLASSIFICATION_TYPE = U
NORAD_CAT_ID   = 16908
ELEMENT_SET_NO = 999
REV_AT_EPOCH   = 47093
BSTAR          = .34508916E-4
MEAN_MOTION_DOT = -.93E-6
MEAN_MOTION_DDOT = 0

CCSDS_OMM_VERS = 2.0
CREATION_DATE  = 
ORIGINATOR     = 

OBJECT_NAME    = SL-14 R/B
OBJECT_ID      = 1987-024B
CENTER_NAME    = EARTH
REF_FRAME      = TEME
TIME_SYSTEM    = UTC
MEAN_ELEMENT_THEORY = SGP/SGP4

EPOCH          = 2026-04-02T04:54:03.661056
MEAN_MOTION    = 14.86156147
ECCENTRICITY   = .00182073
INCLINATION    = 82.5260
RA_OF_ASC_NODE = 70.6562
ARG_OF_PERICENTER = 177.9318
MEAN_ANOMALY   = 182.1978

EPHEMERIS_TYPE = 0
CLASSIFICATION_TYPE = U
NORAD_CAT_ID   = 17567
ELEMENT_SET_NO = 999
REV_AT_EPOCH   = 9162
BSTAR          = .80037029E-4
MEAN_MOTION_DOT = .728E-5
MEAN_MOTION_DDOT = 0

CCSDS_OMM_VERS = 2.0
CREATION_DATE  = 
ORIGINATOR     = 

OBJECT_NAME    = COSMOS 1833
OBJECT_ID      = 1987-027A
CENTER_NAME    = EARTH
REF_FRAME      = TEME
TIME_SYSTEM    = UTC
MEAN_ELEMENT_THEORY = SGP/SGP4

EPOCH          = 2026-04-02T05:18:08.248320
MEAN_MOTION    = 14.13045339
ECCENTRICITY   = .00230549
INCLINATION    = 70.9166
RA_OF_ASC_NODE = 276.5579
ARG_OF_PERICENTER = 179.5638
MEAN_ANOMALY   = 180.5508

EPHEMERIS_TYPE = 0
CLASSIFICATION_TYPE = U
NORAD_CAT_ID   = 17589
ELEMENT_SET_NO = 999
REV_AT_EPOCH   = 1364
BSTAR          = -.13653992E-3
MEAN_MOTION_DOT = -.304E-5
MEAN_MOTION_DDOT = 0

CCSDS_OMM_VERS = 2.0
CREATION_DATE  = 
ORIGINATOR     = 

OBJECT_NAME    = SL-16 R/B
OBJECT_ID      = 1987-027B
CENTER_NAME    = EARTH
REF_FRAME      = TEME
TIME_SYSTEM    = UTC
MEAN_ELEMENT_THEORY = SGP/SGP4

EPOCH          = 2026-04-02T08:06:49.799232
MEAN_MOTION    = 14.17167421
ECCENTRICITY   = .0002884
INCLINATION    = 71.0021
RA_OF_ASC_NODE = 226.6580
ARG_OF_PERICENTER = 83.4109
MEAN_ANOMALY   = 276.7343

EPHEMERIS_TYPE = 0
CLASSIFICATION_TYPE = U
NORAD_CAT_ID   = 17590
ELEMENT_SET_NO = 999
REV_AT_EPOCH   = 1869
BSTAR          = .15756158E-3
MEAN_MOTION_DOT = .27E-5
MEAN_MOTION_DDOT = 0

CCSDS_OMM_VERS = 2.0
CREATION_DATE  = 
ORIGINATOR     = 

OBJECT_NAME    = SL-14 R/B
OBJECT_ID      = 1987-038B
CENTER_NAME    = EARTH
REF_FRAME      = TEME
TIME_SYSTEM    = UTC
MEAN_ELEMENT_THEORY = SGP/SGP4

EPOCH          = 2026-04-02T05:04:11.510976
MEAN_MOTION    = 14.85392292
ECCENTRICITY   = .00207632
INCLINATION    = 82.4977
RA_OF_ASC_NODE = 274.6424
ARG_OF_PERICENTER = 87.1999
MEAN_ANOMALY   = 273.1593

EPHEMERIS_TYPE = 0
CLASSIFICATION_TYPE = U
NORAD_CAT_ID   = 17912
ELEMENT_SET_NO = 999
REV_AT_EPOCH   = 8272
BSTAR          = .79684547E-4
MEAN_MOTION_DOT = .713E-5
MEAN_MOTION_DDOT = 0

CCSDS_OMM_VERS = 2.0
CREATION_DATE  = 
ORIGINATOR     = 

OBJECT_NAME    = COSMOS 1844
OBJECT_ID      = 1987-041A
CENTER_NAME    = EARTH
REF_FRAME      = TEME
TIME_SYSTEM    = UTC
MEAN_ELEMENT_THEORY = SGP/SGP4

EPOCH          = 2026-04-02T03:50:51.087264
MEAN_MOTION    = 14.14560339
ECCENTRICITY   = .00313507
INCLINATION    = 70.9017
RA_OF_ASC_NODE = 344.6722
ARG_OF_PERICENTER = 343.4615
MEAN_ANOMALY   = 16.5480

EPHEMERIS_TYPE = 0
CLASSIFICATION_TYPE = U
NORAD_CAT_ID   = 17973
ELEMENT_SET_NO = 999
REV_AT_EPOCH   = 690
BSTAR          = .23500163E-3
MEAN_MOTION_DOT = .405E-5
MEAN_MOTION_DDOT = 0

CCSDS_OMM_VERS = 2.0
CREATION_DATE  = 
ORIGINATOR     = 

OBJECT_NAME    = SL-14 R/B
OBJECT_ID      = 1987-055B
CENTER_NAME    = EARTH
REF_FRAME      = TEME
TIME_SYSTEM    = UTC
MEAN_ELEMENT_THEORY = SGP/SGP4

EPOCH          = 2026-04-02T02:47:54.027456
MEAN_MOTION    = 14.85652446
ECCENTRICITY   = .00192966
INCLINATION    = 82.4999
RA_OF_ASC_NODE = 326.9544
ARG_OF_PERICENTER = 298.3745
MEAN_ANOMALY   = 61.5525

EPHEMERIS_TYPE = 0
CLASSIFICATION_TYPE = U
NORAD_CAT_ID   = 18153
ELEMENT_SET_NO = 999
REV_AT_EPOCH   = 7341
BSTAR          = .53118054E-4
MEAN_MOTION_DOT = .485E-5
MEAN_MOTION_DDOT = 0

CCSDS_OMM_VERS = 2.0
CREATION_DATE  = 
ORIGINATOR     = 

OBJECT_NAME    = COSMOS 1867
OBJECT_ID      = 1987-060A
CENTER_NAME    = EARTH
REF_FRAME      = TEME
TIME_SYSTEM    = UTC
MEAN_ELEMENT_THEORY = SGP/SGP4

EPOCH          = 2026-04-02T02:59:00.079008
MEAN_MOTION    = 14.31506751
ECCENTRICITY   = .00149007
INCLINATION    = 65.0099
RA_OF_ASC_NODE = 241.0732
ARG_OF_PERICENTER = 280.0256
MEAN_ANOMALY   = 79.9147

EPHEMERIS_TYPE = 0
CLASSIFICATION_TYPE = U
NORAD_CAT_ID   = 18187
ELEMENT_SET_NO = 999
REV_AT_EPOCH   = 2329
BSTAR          = .31889537E-4
MEAN_MOTION_DOT = -.15E-6
MEAN_MOTION_DDOT = 0

CCSDS_OMM_VERS = 2.0
CREATION_DATE  = 
ORIGINATOR     = 

OBJECT_NAME    = SL-14 R/B
OBJECT_ID      = 1988-001B
CENTER_NAME    = EARTH
REF_FRAME      = TEME
TIME_SYSTEM    = UTC
MEAN_ELEMENT_THEORY = SGP/SGP4

EPOCH          = 2026-04-02T07:34:32.881440
MEAN_MOTION    = 14.85554523
ECCENTRICITY   = .00187072
INCLINATION    = 82.5158
RA_OF_ASC_NODE = 173.1464
ARG_OF_PERICENTER = 156.0140
MEAN_ANOMALY   = 204.1952

EPHEMERIS_TYPE = 0
CLASSIFICATION_TYPE = U
NORAD_CAT_ID   = 18749
ELEMENT_SET_NO = 999
REV_AT_EPOCH   = 4553
BSTAR          = .75685037E-4
MEAN_MOTION_DOT = .68E-5
MEAN_MOTION_DDOT = 0

CCSDS_OMM_VERS = 2.0
CREATION_DATE  = 
ORIGINATOR     = 

OBJECT_NAME    = COSMOS 1933
OBJECT_ID      = 1988-020A
CENTER_NAME    = EARTH
REF_FRAME      = TEME
TIME_SYSTEM    = UTC
MEAN_ELEMENT_THEORY = SGP/SGP4

EPOCH          = 2026-04-02T07:42:50.589504
MEAN_MOTION    = 15.18216761
ECCENTRICITY   = .00055225
INCLINATION    = 82.5131
RA_OF_ASC_NODE = 227.5247
ARG_OF_PERICENTER = 112.9435
MEAN_ANOMALY   = 247.2383

EPHEMERIS_TYPE = 0
CLASSIFICATION_TYPE = U
NORAD_CAT_ID   = 18958
ELEMENT_SET_NO = 999
REV_AT_EPOCH   = 5381
BSTAR          = .34424165E-3
MEAN_MOTION_DOT = .7074E-4
MEAN_MOTION_DDOT = 0

